SITRO-AIS-58            
1 67258U 25313L   26024.27513519  .00017744  00000+0  81717-3 0  9998
2 67258  97.4085 101.2592 0017198 145.3243 214.9117 15.20223099  4069
2025-313M               
1 67259U 25313M   26024.27050069  .00023307  00000+0  10606-2 0  9995
2 67259  97.4126 101.2918 0016347 143.9150 216.3192 15.20590667  4061
SITRO-AIS-60            
1 67260U 25313N   26024.27331230  .00013698  00000+0  63166-3 0  9991
2 67260  97.4092 101.2647 0016674 145.5281 214.7039 15.20245111  4063
2025-313P               
1 67261U 25313P   26024.26774076  .00030840  00000+0  13886-2 0  9991
2 67261  97.4127 101.2959 0016010 144.2636 215.9674 15.20900752  4060
2025-313Q               
1 67262U 25313Q   26024.27058992  .00020825  00000+0  94983-3 0  9995
2 67262  97.4095 101.2692 0016242 146.0257 214.2022 15.20536886  4067
DCS-1                   
1 67263U 25313R   26024.27127257  .00017970  00000+0  82256-3 0  9994
2 67263  97.4108 101.2841 0016233 145.0604 215.1700 15.20444255  4065
2025-313S               
1 67264U 25313S   26024.27298649  .00012231  00000+0  56475-3 0  9998
2 67264  97.4178 101.2889 0016317 149.9201 210.2975 15.20233729  4066
SITRO-TD-4              
1 67265U 25313T   26024.27079474  .00017259  00000+0  78990-3 0  9993
2 67265  97.4087 101.2773 0016184 145.8372 214.3908 15.20458962  4063
SITRO-AIS-65            
1 67266U 25313U   26024.27067534  .00016549  00000+0  75741-3 0  9990
2 67266  97.4115 101.2865 0016095 144.6134 215.6173 15.20470353  4068
2025-313V               
1 67267U 25313V   26024.26977771  .00019615  00000+0  89444-3 0  9995
2 67267  97.4097 101.2729 0015271 150.0051 210.2062 15.20571370  4060
ZORKY-2M 7              
1 67268U 25313W   26024.27127054  .00013398  00000+0  61539-3 0  9995
2 67268  97.4096 101.2692 0016282 145.3596 214.8703 15.20390925  4060
2025-313X               
1 67269U 25313X   26024.26879891  .00024370  00000+0  11050-2 0  9992
2 67269  97.4122 101.2915 0015984 143.8949 216.3369 15.20710095  4061
