CCSDS_OMM_VERS = 2.0
CREATION_DATE  = 
ORIGINATOR     = 

OBJECT_NAME    = SITRO-AIS-58
OBJECT_ID      = 2025-313L
CENTER_NAME    = EARTH
REF_FRAME      = TEME
TIME_SYSTEM    = UTC
MEAN_ELEMENT_THEORY = SGP/SGP4

EPOCH          = 2026-01-24T06:36:11.680416
MEAN_MOTION    = 15.20223099
ECCENTRICITY   = .00171982
INCLINATION    = 97.4085
RA_OF_ASC_NODE = 101.2592
ARG_OF_PERICENTER = 145.3243
MEAN_ANOMALY   = 214.9117

EPHEMERIS_TYPE = 0
CLASSIFICATION_TYPE = U
NORAD_CAT_ID   = 67258
ELEMENT_SET_NO = 999
REV_AT_EPOCH   = 406
BSTAR          = .81717223E-3
MEAN_MOTION_DOT = .17744E-3
MEAN_MOTION_DDOT = 0

CCSDS_OMM_VERS = 2.0
CREATION_DATE  = 
ORIGINATOR     = 

OBJECT_NAME    = 2025-313M
OBJECT_ID      = 2025-313M
CENTER_NAME    = EARTH
REF_FRAME      = TEME
TIME_SYSTEM    = UTC
MEAN_ELEMENT_THEORY = SGP/SGP4

EPOCH          = 2026-01-24T06:29:31.259616
MEAN_MOTION    = 15.20590667
ECCENTRICITY   = .00163476
INCLINATION    = 97.4126
RA_OF_ASC_NODE = 101.2918
ARG_OF_PERICENTER = 143.9150
MEAN_ANOMALY   = 216.3192

EPHEMERIS_TYPE = 0
CLASSIFICATION_TYPE = U
NORAD_CAT_ID   = 67259
ELEMENT_SET_NO = 999
REV_AT_EPOCH   = 406
BSTAR          = .10606182E-2
MEAN_MOTION_DOT = .23307E-3
MEAN_MOTION_DDOT = 0

CCSDS_OMM_VERS = 2.0
CREATION_DATE  = 
ORIGINATOR     = 

OBJECT_NAME    = SITRO-AIS-60
OBJECT_ID      = 2025-313N
CENTER_NAME    = EARTH
REF_FRAME      = TEME
TIME_SYSTEM    = UTC
MEAN_ELEMENT_THEORY = SGP/SGP4

EPOCH          = 2026-01-24T06:33:34.182720
MEAN_MOTION    = 15.20245111
ECCENTRICITY   = .00166749
INCLINATION    = 97.4092
RA_OF_ASC_NODE = 101.2647
ARG_OF_PERICENTER = 145.5281
MEAN_ANOMALY   = 214.7039

EPHEMERIS_TYPE = 0
CLASSIFICATION_TYPE = U
NORAD_CAT_ID   = 67260
ELEMENT_SET_NO = 999
REV_AT_EPOCH   = 406
BSTAR          = .63165708E-3
MEAN_MOTION_DOT = .13698E-3
MEAN_MOTION_DDOT = 0

CCSDS_OMM_VERS = 2.0
CREATION_DATE  = 
ORIGINATOR     = 

OBJECT_NAME    = 2025-313P
OBJECT_ID      = 2025-313P
CENTER_NAME    = EARTH
REF_FRAME      = TEME
TIME_SYSTEM    = UTC
MEAN_ELEMENT_THEORY = SGP/SGP4

EPOCH          = 2026-01-24T06:25:32.801664
MEAN_MOTION    = 15.20900752
ECCENTRICITY   = .00160109
INCLINATION    = 97.4127
RA_OF_ASC_NODE = 101.2959
ARG_OF_PERICENTER = 144.2636
MEAN_ANOMALY   = 215.9674

EPHEMERIS_TYPE = 0
CLASSIFICATION_TYPE = U
NORAD_CAT_ID   = 67261
ELEMENT_SET_NO = 999
REV_AT_EPOCH   = 406
BSTAR          = .13886148E-2
MEAN_MOTION_DOT = .3084E-3
MEAN_MOTION_DDOT = 0

CCSDS_OMM_VERS = 2.0
CREATION_DATE  = 
ORIGINATOR     = 

OBJECT_NAME    = 2025-313Q
OBJECT_ID      = 2025-313Q
CENTER_NAME    = EARTH
REF_FRAME      = TEME
TIME_SYSTEM    = UTC
MEAN_ELEMENT_THEORY = SGP/SGP4

EPOCH          = 2026-01-24T06:29:38.969088
MEAN_MOTION    = 15.20536886
ECCENTRICITY   = .00162423
INCLINATION    = 97.4095
RA_OF_ASC_NODE = 101.2692
ARG_OF_PERICENTER = 146.0257
MEAN_ANOMALY   = 214.2022

EPHEMERIS_TYPE = 0
CLASSIFICATION_TYPE = U
NORAD_CAT_ID   = 67262
ELEMENT_SET_NO = 999
REV_AT_EPOCH   = 406
BSTAR          = .94983149E-3
MEAN_MOTION_DOT = .20825E-3
MEAN_MOTION_DDOT = 0

CCSDS_OMM_VERS = 2.0
CREATION_DATE  = 
ORIGINATOR     = 

OBJECT_NAME    = DCS-1
OBJECT_ID      = 2025-313R
CENTER_NAME    = EARTH
REF_FRAME      = TEME
TIME_SYSTEM    = UTC
MEAN_ELEMENT_THEORY = SGP/SGP4

EPOCH          = 2026-01-24T06:30:37.950048
MEAN_MOTION    = 15.20444255
ECCENTRICITY   = .00162336
INCLINATION    = 97.4108
RA_OF_ASC_NODE = 101.2841
ARG_OF_PERICENTER = 145.0604
MEAN_ANOMALY   = 215.1700

EPHEMERIS_TYPE = 0
CLASSIFICATION_TYPE = U
NORAD_CAT_ID   = 67263
ELEMENT_SET_NO = 999
REV_AT_EPOCH   = 406
BSTAR          = .82256467E-3
MEAN_MOTION_DOT = .1797E-3
MEAN_MOTION_DDOT = 0

CCSDS_OMM_VERS = 2.0
CREATION_DATE  = 
ORIGINATOR     = 

OBJECT_NAME    = 2025-313S
OBJECT_ID      = 2025-313S
CENTER_NAME    = EARTH
REF_FRAME      = TEME
TIME_SYSTEM    = UTC
MEAN_ELEMENT_THEORY = SGP/SGP4

EPOCH          = 2026-01-24T06:33:06.032736
MEAN_MOTION    = 15.20233729
ECCENTRICITY   = .00163178
INCLINATION    = 97.4178
RA_OF_ASC_NODE = 101.2889
ARG_OF_PERICENTER = 149.9201
MEAN_ANOMALY   = 210.2975

EPHEMERIS_TYPE = 0
CLASSIFICATION_TYPE = U
NORAD_CAT_ID   = 67264
ELEMENT_SET_NO = 999
REV_AT_EPOCH   = 406
BSTAR          = .5647462E-3
MEAN_MOTION_DOT = .12231E-3
MEAN_MOTION_DDOT = 0

CCSDS_OMM_VERS = 2.0
CREATION_DATE  = 
ORIGINATOR     = 

OBJECT_NAME    = SITRO-TD-4
OBJECT_ID      = 2025-313T
CENTER_NAME    = EARTH
REF_FRAME      = TEME
TIME_SYSTEM    = UTC
MEAN_ELEMENT_THEORY = SGP/SGP4

EPOCH          = 2026-01-24T06:29:56.665536
MEAN_MOTION    = 15.20458962
ECCENTRICITY   = .00161843
INCLINATION    = 97.4087
RA_OF_ASC_NODE = 101.2773
ARG_OF_PERICENTER = 145.8372
MEAN_ANOMALY   = 214.3908

EPHEMERIS_TYPE = 0
CLASSIFICATION_TYPE = U
NORAD_CAT_ID   = 67265
ELEMENT_SET_NO = 999
REV_AT_EPOCH   = 406
BSTAR          = .78990432E-3
MEAN_MOTION_DOT = .17259E-3
MEAN_MOTION_DDOT = 0

CCSDS_OMM_VERS = 2.0
CREATION_DATE  = 
ORIGINATOR     = 

OBJECT_NAME    = SITRO-AIS-65
OBJECT_ID      = 2025-313U
CENTER_NAME    = EARTH
REF_FRAME      = TEME
TIME_SYSTEM    = UTC
MEAN_ELEMENT_THEORY = SGP/SGP4

EPOCH          = 2026-01-24T06:29:46.349376
MEAN_MOTION    = 15.20470353
ECCENTRICITY   = .00160953
INCLINATION    = 97.4115
RA_OF_ASC_NODE = 101.2865
ARG_OF_PERICENTER = 144.6134
MEAN_ANOMALY   = 215.6173

EPHEMERIS_TYPE = 0
CLASSIFICATION_TYPE = U
NORAD_CAT_ID   = 67266
ELEMENT_SET_NO = 999
REV_AT_EPOCH   = 406
BSTAR          = .75741032E-3
MEAN_MOTION_DOT = .16549E-3
MEAN_MOTION_DDOT = 0

CCSDS_OMM_VERS = 2.0
CREATION_DATE  = 
ORIGINATOR     = 

OBJECT_NAME    = 2025-313V
OBJECT_ID      = 2025-313V
CENTER_NAME    = EARTH
REF_FRAME      = TEME
TIME_SYSTEM    = UTC
MEAN_ELEMENT_THEORY = SGP/SGP4

EPOCH          = 2026-01-24T06:28:28.794144
MEAN_MOTION    = 15.20571370
ECCENTRICITY   = .00152717
INCLINATION    = 97.4097
RA_OF_ASC_NODE = 101.2729
ARG_OF_PERICENTER = 150.0051
MEAN_ANOMALY   = 210.2062

EPHEMERIS_TYPE = 0
CLASSIFICATION_TYPE = U
NORAD_CAT_ID   = 67267
ELEMENT_SET_NO = 999
REV_AT_EPOCH   = 406
BSTAR          = .89444191E-3
MEAN_MOTION_DOT = .19615E-3
MEAN_MOTION_DDOT = 0

CCSDS_OMM_VERS = 2.0
CREATION_DATE  = 
ORIGINATOR     = 

OBJECT_NAME    = ZORKY-2M 7
OBJECT_ID      = 2025-313W
CENTER_NAME    = EARTH
REF_FRAME      = TEME
TIME_SYSTEM    = UTC
MEAN_ELEMENT_THEORY = SGP/SGP4

EPOCH          = 2026-01-24T06:30:37.774656
MEAN_MOTION    = 15.20390925
ECCENTRICITY   = .00162825
INCLINATION    = 97.4096
RA_OF_ASC_NODE = 101.2692
ARG_OF_PERICENTER = 145.3596
MEAN_ANOMALY   = 214.8703

EPHEMERIS_TYPE = 0
CLASSIFICATION_TYPE = U
NORAD_CAT_ID   = 67268
ELEMENT_SET_NO = 999
REV_AT_EPOCH   = 406
BSTAR          = .61539477E-3
MEAN_MOTION_DOT = .13398E-3
MEAN_MOTION_DDOT = 0

CCSDS_OMM_VERS = 2.0
CREATION_DATE  = 
ORIGINATOR     = 

OBJECT_NAME    = 2025-313X
OBJECT_ID      = 2025-313X
CENTER_NAME    = EARTH
REF_FRAME      = TEME
TIME_SYSTEM    = UTC
MEAN_ELEMENT_THEORY = SGP/SGP4

EPOCH          = 2026-01-24T06:27:04.225824
MEAN_MOTION    = 15.20710095
ECCENTRICITY   = .00159847
INCLINATION    = 97.4122
RA_OF_ASC_NODE = 101.2915
ARG_OF_PERICENTER = 143.8949
MEAN_ANOMALY   = 216.3369

EPHEMERIS_TYPE = 0
CLASSIFICATION_TYPE = U
NORAD_CAT_ID   = 67269
ELEMENT_SET_NO = 999
REV_AT_EPOCH   = 406
BSTAR          = .11050381E-2
MEAN_MOTION_DOT = .2437E-3
MEAN_MOTION_DDOT = 0

